{
  "type": "FeatureCollection",
  "features": [
    {
      "type": "Feature",
      "properties": {
        "norad_id": 55268,
        "name": "GPS BIII-6  (PRN 28)",
        "group": "gnss",
        "lat": -54.75346304161381,
        "lon": 74.62914470025693,
        "alt_km": 20187.437768641023,
        "timestamp": "2025-12-14T20:40:32.015552+00:00",
        "meta_object_name": "GPS BIII-6  (PRN 28)",
        "meta_object_id": "2023-009A",
        "meta_epoch": "2025-12-13T12:37:03.021024",
        "meta_mean_motion": 2.00555696,
        "meta_eccentricity": 0.00037118,
        "meta_inclination": 55.1051,
        "meta_ra_of_asc_node": 155.8142,
        "meta_arg_of_pericenter": 357.4368,
        "meta_mean_anomaly": 33.2544,
        "meta_ephemeris_type": 0,
        "meta_classification_type": "U",
        "meta_norad_cat_id": 55268,
        "meta_element_set_no": 999,
        "meta_rev_at_epoch": 2152,
        "meta_bstar": 0,
        "meta_mean_motion_dot": 1e-06,
        "meta_mean_motion_ddot": 0,
        "tle_line1": "1 55268U 23009A   25347.52572941  .00000100  00000+0  00000+0 0  9995",
        "tle_line2": "2 55268  55.1051 155.8142 0003711 357.4368  33.2544  2.00555696 21528"
      },
      "geometry": {
        "type": "Point",
        "coordinates": [
          74.62914470025693,
          -54.75346304161381
        ]
      }
    },
    {
      "type": "Feature",
      "properties": {
        "norad_id": 56564,
        "name": "BEIDOU-3 G4 (C62)",
        "group": "gnss",
        "lat": -0.7839650750436358,
        "lon": -166.031069858853,
        "alt_km": 35775.082605512885,
        "timestamp": "2025-12-14T20:40:32.015578+00:00",
        "meta_object_name": "BEIDOU-3 G4 (C62)",
        "meta_object_id": "2023-066A",
        "meta_epoch": "2025-12-14T07:19:54.939936",
        "meta_mean_motion": 1.0027173,
        "meta_eccentricity": 0.00028443,
        "meta_inclination": 0.8112,
        "meta_ra_of_asc_node": 302.1876,
        "meta_arg_of_pericenter": 230.4527,
        "meta_mean_anomaly": 180.6283,
        "meta_ephemeris_type": 0,
        "meta_classification_type": "U",
        "meta_norad_cat_id": 56564,
        "meta_element_set_no": 999,
        "meta_rev_at_epoch": 954,
        "meta_bstar": 0,
        "meta_mean_motion_dot": -9.3e-07,
        "meta_mean_motion_ddot": 0,
        "tle_line1": "1 56564U 23066A   25348.30549699 -.00000093  00000+0  00000+0 0  9991",
        "tle_line2": "2 56564   0.8112 302.1876 0002844 230.4527 180.6283  1.00271730  9545"
      },
      "geometry": {
        "type": "Point",
        "coordinates": [
          -166.031069858853,
          -0.7839650750436358
        ]
      }
    },
    {
      "type": "Feature",
      "properties": {
        "norad_id": 56759,
        "name": "NVS-01 (IRNSS-1J)",
        "group": "gnss",
        "lat": -2.6175659764891175,
        "lon": 163.27458959882955,
        "alt_km": 35793.57640306589,
        "timestamp": "2025-12-14T20:40:32.015597+00:00",
        "meta_object_name": "NVS-01 (IRNSS-1J)",
        "meta_object_id": "2023-076A",
        "meta_epoch": "2025-12-14T07:11:10.777056",
        "meta_mean_motion": 1.00276861,
        "meta_eccentricity": 0.00089161,
        "meta_inclination": 2.6142,
        "meta_ra_of_asc_node": 251.5399,
        "meta_arg_of_pericenter": 14.8573,
        "meta_mean_anomaly": 54.0881,
        "meta_ephemeris_type": 0,
        "meta_classification_type": "U",
        "meta_norad_cat_id": 56759,
        "meta_element_set_no": 999,
        "meta_rev_at_epoch": 926,
        "meta_bstar": 0,
        "meta_mean_motion_dot": -3.15e-06,
        "meta_mean_motion_ddot": 0,
        "tle_line1": "1 56759U 23076A   25348.29943029 -.00000315  00000+0  00000+0 0  9998",
        "tle_line2": "2 56759   2.6142 251.5399 0008916  14.8573  54.0881  1.00276861  9269"
      },
      "geometry": {
        "type": "Point",
        "coordinates": [
          163.27458959882955,
          -2.6175659764891175
        ]
      }
    },
    {
      "type": "Feature",
      "properties": {
        "norad_id": 57517,
        "name": "COSMOS 2569 (703K)",
        "group": "gnss",
        "lat": 18.083925902123624,
        "lon": 87.51866404799651,
        "alt_km": 19129.287952271847,
        "timestamp": "2025-12-14T20:40:32.015614+00:00",
        "meta_object_name": "COSMOS 2569 (703K)",
        "meta_object_id": "2023-114A",
        "meta_epoch": "2025-12-13T21:31:33.711744",
        "meta_mean_motion": 2.13104015,
        "meta_eccentricity": 0.00105602,
        "meta_inclination": 65.1948,
        "meta_ra_of_asc_node": 78.8743,
        "meta_arg_of_pericenter": 286.9875,
        "meta_mean_anomaly": 72.9108,
        "meta_ephemeris_type": 0,
        "meta_classification_type": "U",
        "meta_norad_cat_id": 57517,
        "meta_element_set_no": 999,
        "meta_rev_at_epoch": 1831,
        "meta_bstar": 0,
        "meta_mean_motion_dot": -5.2e-07,
        "meta_mean_motion_ddot": 0,
        "tle_line1": "1 57517U 23114A   25347.89691796 -.00000052  00000+0  00000+0 0  9998",
        "tle_line2": "2 57517  65.1948  78.8743 0010560 286.9875  72.9108  2.13104015 18311"
      },
      "geometry": {
        "type": "Point",
        "coordinates": [
          87.51866404799651,
          18.083925902123624
        ]
      }
    },
    {
      "type": "Feature",
      "properties": {
        "norad_id": 58654,
        "name": "BEIDOU-3 M28 (C50)",
        "group": "gnss",
        "lat": -3.9432765821930813,
        "lon": -108.75850841955193,
        "alt_km": 21528.413755812246,
        "timestamp": "2025-12-14T20:40:32.015632+00:00",
        "meta_object_name": "BEIDOU-3 M28 (C50)",
        "meta_object_id": "2023-207A",
        "meta_epoch": "2025-12-14T01:10:25.688352",
        "meta_mean_motion": 1.86229806,
        "meta_eccentricity": 0.00024295,
        "meta_inclination": 55.5856,
        "meta_ra_of_asc_node": 68.557,
        "meta_arg_of_pericenter": 270.0731,
        "meta_mean_anomaly": 89.9173,
        "meta_ephemeris_type": 0,
        "meta_classification_type": "U",
        "meta_norad_cat_id": 58654,
        "meta_element_set_no": 999,
        "meta_rev_at_epoch": 1339,
        "meta_bstar": 0,
        "meta_mean_motion_dot": -8.3e-07,
        "meta_mean_motion_ddot": 0,
        "tle_line1": "1 58654U 23207A   25348.04890843 -.00000083  00000+0  00000+0 0  9990",
        "tle_line2": "2 58654  55.5856  68.5570 0002429 270.0731  89.9173  1.86229806 13397"
      },
      "geometry": {
        "type": "Point",
        "coordinates": [
          -108.75850841955193,
          -3.9432765821930813
        ]
      }
    },
    {
      "type": "Feature",
      "properties": {
        "norad_id": 58655,
        "name": "BEIDOU-3 M26 (C48)",
        "group": "gnss",
        "lat": -31.683762695407136,
        "lon": 43.53167943303635,
        "alt_km": 21527.446384322542,
        "timestamp": "2025-12-14T20:40:32.015649+00:00",
        "meta_object_name": "BEIDOU-3 M26 (C48)",
        "meta_object_id": "2023-207B",
        "meta_epoch": "2025-12-13T07:25:48.468864",
        "meta_mean_motion": 1.86231261,
        "meta_eccentricity": 0.00038294,
        "meta_inclination": 55.587,
        "meta_ra_of_asc_node": 68.5683,
        "meta_arg_of_pericenter": 255.9601,
        "meta_mean_anomaly": 104.0159,
        "meta_ephemeris_type": 0,
        "meta_classification_type": "U",
        "meta_norad_cat_id": 58655,
        "meta_element_set_no": 999,
        "meta_rev_at_epoch": 1336,
        "meta_bstar": 0,
        "meta_mean_motion_dot": -7.9e-07,
        "meta_mean_motion_ddot": 0,
        "tle_line1": "1 58655U 23207B   25347.30958876 -.00000079  00000+0  00000+0 0  9995",
        "tle_line2": "2 58655  55.5870  68.5683 0003829 255.9601 104.0159  1.86231261 13360"
      },
      "geometry": {
        "type": "Point",
        "coordinates": [
          43.53167943303635,
          -31.683762695407136
        ]
      }
    },
    {
      "type": "Feature",
      "properties": {
        "norad_id": 59598,
        "name": "GSAT0225 (GALILEO 29)",
        "group": "gnss",
        "lat": 31.53025066540204,
        "lon": -99.20983988073203,
        "alt_km": 23213.383840163682,
        "timestamp": "2025-12-14T20:40:32.015667+00:00",
        "meta_object_name": "GSAT0225 (GALILEO 29)",
        "meta_object_id": "2024-079A",
        "meta_epoch": "2025-12-13T14:17:14.853120",
        "meta_mean_motion": 1.7047497,
        "meta_eccentricity": 0.00020845,
        "meta_inclination": 55.0023,
        "meta_ra_of_asc_node": 106.2711,
        "meta_arg_of_pericenter": 178.8578,
        "meta_mean_anomaly": 264.3288,
        "meta_ephemeris_type": 0,
        "meta_classification_type": "U",
        "meta_norad_cat_id": 59598,
        "meta_element_set_no": 999,
        "meta_rev_at_epoch": 1015,
        "meta_bstar": 0,
        "meta_mean_motion_dot": -1e-08,
        "meta_mean_motion_ddot": 0,
        "tle_line1": "1 59598U 24079A   25347.59531080 -.00000001  00000+0  00000+0 0  9990",
        "tle_line2": "2 59598  55.0023 106.2711 0002084 178.8578 264.3288  1.70474970 10158"
      },
      "geometry": {
        "type": "Point",
        "coordinates": [
          -99.20983988073203,
          31.53025066540204
        ]
      }
    }
  ]
}